{
    "links": {
        "self": "http://www.neowsapp.com/rest/v1/neo/3384405?api_key=iIulBulltgU6a56xZRHN4H3l9WmuAYTsLGpBGhQ2"
    },
    "id": "3384405",
    "neo_reference_id": "3384405",
    "name": "(2007 RT17)",
    "designation": "2007 RT17",
    "nasa_jpl_url": "http://ssd.jpl.nasa.gov/sbdb.cgi?sstr=3384405",
    "absolute_magnitude_h": 25.6,
    "estimated_diameter": {
        "kilometers": {
            "estimated_diameter_min": 0.0201629919,
            "estimated_diameter_max": 0.0450858206
        },
        "meters": {
            "estimated_diameter_min": 20.1629919443,
            "estimated_diameter_max": 45.0858206172
        },
        "miles": {
            "estimated_diameter_min": 0.0125286985,
            "estimated_diameter_max": 0.0280150214
        },
        "feet": {
            "estimated_diameter_min": 66.1515504905,
            "estimated_diameter_max": 147.9193637137
        }
    },
    "is_potentially_hazardous_asteroid": false,
    "close_approach_data": [
        {
            "close_approach_date": "1949-05-23",
            "close_approach_date_full": "1949-May-23 13:24",
            "epoch_date_close_approach": -650370960000,
            "relative_velocity": {
                "kilometers_per_second": "19.1375016565",
                "kilometers_per_hour": "68895.0059634763",
                "miles_per_hour": "42808.6774554723"
            },
            "miss_distance": {
                "astronomical": "0.3322338654",
                "lunar": "129.2389736406",
                "kilometers": "49701478.605706698",
                "miles": "30883066.7387525124"
            },
            "orbiting_body": "Earth"
        },
        {
            "close_approach_date": "2007-09-01",
            "close_approach_date_full": "2007-Sep-01 12:39",
            "epoch_date_close_approach": 1188650340000,
            "relative_velocity": {
                "kilometers_per_second": "10.0910012372",
                "kilometers_per_hour": "36327.6044540791",
                "miles_per_hour": "22572.5606675916"
            },
            "miss_distance": {
                "astronomical": "0.0374542612",
                "lunar": "14.5697076068",
                "kilometers": "5603077.697943644",
                "miles": "3481591.0379805272"
            },
            "orbiting_body": "Earth"
        }
    ],
    "orbital_data": {
        "orbit_id": "8",
        "orbit_determination_date": "2017-04-06 09:06:02",
        "first_observation_date": "2007-09-13",
        "last_observation_date": "2007-09-14",
        "data_arc_in_days": 1,
        "observations_used": 17,
        "orbit_uncertainty": "9",
        "minimum_orbit_intersection": ".0346543",
        "jupiter_tisserand_invariant": "3.608",
        "epoch_osculation": "2454357.5",
        "eccentricity": ".5283911578327074",
        "semi_major_axis": "2.037992612156414",
        "inclination": "7.168719092873022",
        "ascending_node_longitude": "354.769908020744",
        "orbital_period": "1062.679578592166",
        "perihelion_distance": ".9611353361645825",
        "perihelion_argument": "311.1041209511695",
        "aphelion_distance": "3.114849888148245",
        "perihelion_time": "2454318.228255523019",
        "mean_anomaly": "13.30394250206906",
        "mean_motion": ".338766272780857",
        "equinox": "J2000",
        "orbit_class": {
            "orbit_class_type": "APO",
            "orbit_class_description": "Near-Earth asteroid orbits which cross the Earth’s orbit similar to that of 1862 Apollo",
            "orbit_class_range": "a (semi-major axis) > 1.0 AU; q (perihelion) < 1.017 AU"
        }
    },
    "is_sentry_object": false
}